{"type": "FeatureCollection", "features": [ {"type": "Feature", "properties": {"norad_id": 66605, "name": "STARLINK-36052", "group": "last-30-days", "lat": -41.48712091079098, "lon": 36.10255709086224, "alt_km": 446.42910126944935, "timestamp": "2025-12-27T09:28:55.181886+00:00", "meta": {"OBJECT_NAME": "STARLINK-36052", "OBJECT_ID": "2025-270T", "EPOCH": "2025-12-27T00:28:37.937856", "MEAN_MOTION": 15.40732543, "ECCENTRICITY": 0.0001034, "INCLINATION": 42.9984, "RA_OF_ASC_NODE": 109.8967, "ARG_OF_PERICENTER": 271.8255, "MEAN_ANOMALY": 88.2483, "EPHEMERIS_TYPE": 0, "CLASSIFICATION_TYPE": "U", "NORAD_CAT_ID": 66605, "ELEMENT_SET_NO": 999, "REV_AT_EPOCH": 655, "BSTAR": 0.0014675, "MEAN_MOTION_DOT": 0.00061558, "MEAN_MOTION_DDOT": 0}, "tle": {"line1": "1 66605U 25270T   25361.01988354  .00061558  00000+0  14675-2 0  9993", "line2": "2 66605  42.9984 109.8967 0001034 271.8255  88.2483 15.40732543  6552"}}, "geometry": {"type": "Point", "coordinates": [36.10255709086224, -41.48712091079098]}}, {"type": "Feature", "properties": {"norad_id": 66606, "name": "STARLINK-36063", "group": "last-30-days", "lat": 7.287356718807918, "lon": 115.40785727193857, "alt_km": 442.50318681803856, "timestamp": "2025-12-27T09:28:55.181897+00:00", "meta": {"OBJECT_NAME": "STARLINK-36063", "OBJECT_ID": "2025-270U", "EPOCH": "2025-12-27T00:06:02.589696", "MEAN_MOTION": 15.40741286, "ECCENTRICITY": 0.000234, "INCLINATION": 43.0029, "RA_OF_ASC_NODE": 109.7742, "ARG_OF_PERICENTER": 281.2818, "MEAN_ANOMALY": 78.7775, "EPHEMERIS_TYPE": 0, "CLASSIFICATION_TYPE": "U", "NORAD_CAT_ID": 66606, "ELEMENT_SET_NO": 999, "REV_AT_EPOCH": 655, "BSTAR": 0.0011037, "MEAN_MOTION_DOT": 0.00046147, "MEAN_MOTION_DDOT": 0}, "tle": {"line1": "1 66606U 25270U   25361.00419664  .00046147  00000+0  11037-2 0  9992", "line2": "2 66606  43.0029 109.7742 0002340 281.2818  78.7775 15.40741286  6558"}}, "geometry": {"type": "Point", "coordinates": [115.40785727193857, 7.287356718807918]}}, {"type": "Feature", "properties": {"norad_id": 66607, "name": "STARLINK-35993", "group": "last-30-days", "lat": -37.773708692935465, "lon": 51.42598122503785, "alt_km": 447.1268484645998, "timestamp": "2025-12-27T09:28:55.181907+00:00", "meta": {"OBJECT_NAME": "STARLINK-35993", "OBJECT_ID": "2025-270V", "EPOCH": "2025-12-27T00:25:24.794112", "MEAN_MOTION": 15.40714883, "ECCENTRICITY": 4.8e-05, "INCLINATION": 42.9959, "RA_OF_ASC_NODE": 109.8792, "ARG_OF_PERICENTER": 40.5095, "MEAN_ANOMALY": 319.5797, "EPHEMERIS_TYPE": 0, "CLASSIFICATION_TYPE": "U", "NORAD_CAT_ID": 66607, "ELEMENT_SET_NO": 999, "REV_AT_EPOCH": 645, "BSTAR": 0.0011936, "MEAN_MOTION_DOT": 0.00049906, "MEAN_MOTION_DDOT": 0}, "tle": {"line1": "1 66607U 25270V   25361.01764808  .00049906  00000+0  11936-2 0  9991", "line2": "2 66607  42.9959 109.8792 0000480  40.5095 319.5797 15.40714883  6453"}}, "geometry": {"type": "Point", "coordinates": [51.42598122503785, -37.773708692935465]}}, {"type": "Feature", "properties": {"norad_id": 66608, "name": "STARLINK-36036", "group": "last-30-days", "lat": 15.706203852111127, "lon": 125.05079724508325, "alt_km": 441.3003092482213, "timestamp": "2025-12-27T09:28:55.181917+00:00", "meta": {"OBJECT_NAME": "STARLINK-36036", "OBJECT_ID": "2025-270W", "EPOCH": "2025-12-26T14:42:42.210720", "MEAN_MOTION": 15.4075797, "ECCENTRICITY": 0.0001049, "INCLINATION": 43, "RA_OF_ASC_NODE": 111.9957, "ARG_OF_PERICENTER": 266.4022, "MEAN_ANOMALY": 93.6714, "EPHEMERIS_TYPE": 0, "CLASSIFICATION_TYPE": "U", "NORAD_CAT_ID": 66608, "ELEMENT_SET_NO": 999, "REV_AT_EPOCH": 633, "BSTAR": 0.0017907, "MEAN_MOTION_DOT": 0.00075384, "MEAN_MOTION_DDOT": 0}, "tle": {"line1": "1 66608U 25270W   25360.61298855  .00075384  00000+0  17907-2 0  9994", "line2": "2 66608  43.0000 111.9957 0001049 266.4022  93.6714 15.40757970  6331"}}, "geometry": {"type": "Point", "coordinates": [125.05079724508325, 15.706203852111127]}}, {"type": "Feature", "properties": {"norad_id": 66609, "name": "STARLINK-36034", "group": "last-30-days", "lat": 30.431472219353637, "lon": 146.5120970786099, "alt_km": 439.3001742358547, "timestamp": "2025-12-27T09:28:55.181927+00:00", "meta": {"OBJECT_NAME": "STARLINK-36034", "OBJECT_ID": "2025-270X", "EPOCH": "2025-12-26T17:42:57.909600", "MEAN_MOTION": 15.4069031, "ECCENTRICITY": 4.027e-05, "INCLINATION": 42.9964, "RA_OF_ASC_NODE": 111.2138, "ARG_OF_PERICENTER": 201.8211, "MEAN_ANOMALY": 158.2629, "EPHEMERIS_TYPE": 0, "CLASSIFICATION_TYPE": "U", "NORAD_CAT_ID": 66609, "ELEMENT_SET_NO": 999, "REV_AT_EPOCH": 635, "BSTAR": 0.0011145098, "MEAN_MOTION_DOT": 0.00046521, "MEAN_MOTION_DDOT": 0}, "tle": {"line1": "1 66609U 25270X   25360.73817025  .00046521  00000+0  11145-2 0  9993", "line2": "2 66609  42.9964 111.2138 0000402 201.8211 158.2629 15.40690310  6357"}}, "geometry": {"type": "Point", "coordinates": [146.5120970786099, 30.431472219353637]}}, {"type": "Feature", "properties": {"norad_id": 66610, "name": "STARLINK-35680", "group": "last-30-days", "lat": -25.380236467227537, "lon": 77.03048407734116, "alt_km": 445.2426807663014, "timestamp": "2025-12-27T09:28:55.181938+00:00", "meta": {"OBJECT_NAME": "STARLINK-35680", "OBJECT_ID": "2025-270Y", "EPOCH": "2025-12-26T14:58:49.990080", "MEAN_MOTION": 15.40709304, "ECCENTRICITY": 0.000156, "INCLINATION": 42.9985, "RA_OF_ASC_NODE": 112.0805, "ARG_OF_PERICENTER": 278.6419, "MEAN_ANOMALY": 81.4261, "EPHEMERIS_TYPE": 0, "CLASSIFICATION_TYPE": "U", "NORAD_CAT_ID": 66610, "ELEMENT_SET_NO": 999, "REV_AT_EPOCH": 660, "BSTAR": 0.0016797, "MEAN_MOTION_DOT": 0.00070534, "MEAN_MOTION_DDOT": 0}, "tle": {"line1": "1 66610U 25270Y   25360.62418970  .00070534  00000+0  16797-2 0  9998", "line2": "2 66610  42.9985 112.0805 0001560 278.6419  81.4261 15.40709304  6601"}}, "geometry": {"type": "Point", "coordinates": [77.03048407734116, -25.380236467227537]}}, {"type": "Feature", "properties": {"norad_id": 66611, "name": "STARLINK-35583", "group": "last-30-days", "lat": -9.58259196264545, "lon": 97.14024029652754, "alt_km": 444.06194111619243, "timestamp": "2025-12-27T09:28:55.181948+00:00", "meta": {"OBJECT_NAME": "STARLINK-35583", "OBJECT_ID": "2025-270Z", "EPOCH": "2025-12-26T16:25:44.103072", "MEAN_MOTION": 15.40707676, "ECCENTRICITY": 0.00016338, "INCLINATION": 42.9993, "RA_OF_ASC_NODE": 111.6744, "ARG_OF_PERICENTER": 285.7881, "MEAN_ANOMALY": 74.2796, "EPHEMERIS_TYPE": 0, "CLASSIFICATION_TYPE": "U", "NORAD_CAT_ID": 66611, "ELEMENT_SET_NO": 999, "REV_AT_EPOCH": 661, "BSTAR": 0.0014847827, "MEAN_MOTION_DOT": 0.00062243, "MEAN_MOTION_DDOT": 0}, "tle": {"line1": "1 66611U 25270Z   25360.68453823  .00062243  00000+0  14848-2 0  9994", "line2": "2 66611  42.9993 111.6744 0001633 285.7881  74.2796 15.40707676  6615"}}, "geometry": {"type": "Point", "coordinates": [97.14024029652754, -9.58259196264545]}}, {"type": "Feature", "properties": {"norad_id": 66612, "name": "STARLINK-36039", "group": "last-30-days", "lat": 42.518845843802644, "lon": -151.55558707125923, "alt_km": 437.7458768768993, "timestamp": "2025-12-27T09:28:55.181958+00:00", "meta": {"OBJECT_NAME": "STARLINK-36039", "OBJECT_ID": "2025-270AA", "EPOCH": "2025-12-26T08:10:07.769280", "MEAN_MOTION": 15.4077388, "ECCENTRICITY": 0.0001563, "INCLINATION": 42.9999, "RA_OF_ASC_NODE": 114.2604, "ARG_OF_PERICENTER": 261.7567, "MEAN_ANOMALY": 98.3112, "EPHEMERIS_TYPE": 0, "CLASSIFICATION_TYPE": "U", "NORAD_CAT_ID": 66612, "ELEMENT_SET_NO": 999, "REV_AT_EPOCH": 644, "BSTAR": 0.0014141, "MEAN_MOTION_DOT": 0.00059376, "MEAN_MOTION_DDOT": 0}, "tle": {"line1": "1 66612U 25270AA  25360.34036770  .00059376  00000+0  14141-2 0  9995", "line2": "2 66612  42.9999 114.2604 0001563 261.7567  98.3112 15.40773880  6443"}}, "geometry": {"type": "Point", "coordinates": [-151.55558707125923, 42.518845843802644]}}, {"type": "Feature", "properties": {"norad_id": 66613, "name": "STARLINK-36037", "group": "last-30-days", "lat": 35.26036761621705, "lon": -121.21219485931564, "alt_km": 441.01194226512325, "timestamp": "2025-12-27T09:28:55.181968+00:00", "meta": {"OBJECT_NAME": "STARLINK-36037", "OBJECT_ID": "2025-270AB", "EPOCH": "2025-12-26T15:50:25.954368", "MEAN_MOTION": 15.4073953, "ECCENTRICITY": 0.00043437, "INCLINATION": 43.0056, "RA_OF_ASC_NODE": 112.3618, "ARG_OF_PERICENTER": 287.9955, "MEAN_ANOMALY": 72.0428, "EPHEMERIS_TYPE": 0, "CLASSIFICATION_TYPE": "U", "NORAD_CAT_ID": 66613, "ELEMENT_SET_NO": 999, "REV_AT_EPOCH": 649, "BSTAR": 0.0011730413, "MEAN_MOTION_DOT": 0.00049089, "MEAN_MOTION_DDOT": 0}, "tle": {"line1": "1 66613U 25270AB  25360.66002262  .00049089  00000+0  11730-2 0  9991", "line2": "2 66613  43.0056 112.3618 0004343 287.9955  72.0428 15.40739530  6492"}}, "geometry": {"type": "Point", "coordinates": [-121.21219485931564, 35.26036761621705]}}, {"type": "Feature", "properties": {"norad_id": 66614, "name": "STARLINK-36040", "group": "last-30-days", "lat": -33.42428777032911, "lon": -27.057096554963632, "alt_km": 447.1513771217733, "timestamp": "2025-12-27T09:28:55.181979+00:00", "meta": {"OBJECT_NAME": "STARLINK-36040", "OBJECT_ID": "2025-270AC", "EPOCH": "2025-12-27T00:41:32.801568", "MEAN_MOTION": 15.40691282, "ECCENTRICITY": 6.79e-05, "INCLINATION": 43.0004, "RA_OF_ASC_NODE": 109.9619, "ARG_OF_PERICENTER": 20.0612, "MEAN_ANOMALY": 340.0272, "EPHEMERIS_TYPE": 0, "CLASSIFICATION_TYPE": "U", "NORAD_CAT_ID": 66614, "ELEMENT_SET_NO": 999, "REV_AT_EPOCH": 639, "BSTAR": 0.0024529, "MEAN_MOTION_DOT": 0.00103528, "MEAN_MOTION_DDOT": 0}, "tle": {"line1": "1 66614U 25270AC  25361.02885187  .00103528  00000+0  24529-2 0  9997", "line2": "2 66614  43.0004 109.9619 0000679  20.0612 340.0272 15.40691282  6398"}}, "geometry": {"type": "Point", "coordinates": [-27.057096554963632, -33.42428777032911]}}]}